{"type": "FeatureCollection", "features": [ {"type": "Feature", "properties": {"norad_id": 66590, "name": "STARLINK-35429", "group": "last-30-days", "lat": -7.211271176857427, "lon": -15.349548857213444, "alt_km": 449.5225588068597, "timestamp": "2025-12-18T21:31:49.698414+00:00", "meta": {"OBJECT_NAME": "STARLINK-35429", "OBJECT_ID": "2025-270C", "EPOCH": "2025-12-18T06:00:02.999808", "MEAN_MOTION": 15.42360807, "ECCENTRICITY": 0.00013741, "INCLINATION": 42.9999, "RA_OF_ASC_NODE": 160.5763, "ARG_OF_PERICENTER": 289.555, "MEAN_ANOMALY": 267.5922, "EPHEMERIS_TYPE": 0, "CLASSIFICATION_TYPE": "U", "NORAD_CAT_ID": 66590, "ELEMENT_SET_NO": 999, "REV_AT_EPOCH": 539, "BSTAR": -0.057817263, "MEAN_MOTION_DOT": -0.02282844, "MEAN_MOTION_DDOT": 0}, "tle": {"line1": "1 66590U 25270C   25352.25003472 -.02282844  00000+0 -57817-1 0  9992", "line2": "2 66590  42.9999 160.5763 0001374 289.5550 267.5922 15.42360807  5393"}}, "geometry": {"type": "Point", "coordinates": [-15.349548857213444, -7.211271176857427]}}, {"type": "Feature", "properties": {"norad_id": 66591, "name": "STARLINK-36058", "group": "last-30-days", "lat": -38.251673219807344, "lon": 34.49975292238633, "alt_km": 416.6782386498071, "timestamp": "2025-12-18T21:31:49.698425+00:00", "meta": {"OBJECT_NAME": "STARLINK-36058", "OBJECT_ID": "2025-270D", "EPOCH": "2025-12-17T22:50:05.800128", "MEAN_MOTION": 15.5058671, "ECCENTRICITY": 0.00024238, "INCLINATION": 42.9988, "RA_OF_ASC_NODE": 162.2452, "ARG_OF_PERICENTER": 278.8152, "MEAN_ANOMALY": 81.2434, "EPHEMERIS_TYPE": 0, "CLASSIFICATION_TYPE": "U", "NORAD_CAT_ID": 66591, "ELEMENT_SET_NO": 999, "REV_AT_EPOCH": 515, "BSTAR": 0.00073493374, "MEAN_MOTION_DOT": 0.00043025, "MEAN_MOTION_DDOT": 0}, "tle": {"line1": "1 66591U 25270D   25351.95145602  .00043025  00000+0  73493-3 0  9993", "line2": "2 66591  42.9988 162.2452 0002423 278.8152  81.2434 15.50586710  5156"}}, "geometry": {"type": "Point", "coordinates": [34.49975292238633, -38.251673219807344]}}, {"type": "Feature", "properties": {"norad_id": 66592, "name": "STARLINK-36066", "group": "last-30-days", "lat": 33.75281483784519, "lon": -157.00512847489819, "alt_km": 439.07365822261454, "timestamp": "2025-12-18T21:31:49.698435+00:00", "meta": {"OBJECT_NAME": "STARLINK-36066", "OBJECT_ID": "2025-270E", "EPOCH": "2025-12-18T04:10:50.446272", "MEAN_MOTION": 15.40728582, "ECCENTRICITY": 0.00014993, "INCLINATION": 42.9987, "RA_OF_ASC_NODE": 161.3424, "ARG_OF_PERICENTER": 276.699, "MEAN_ANOMALY": 83.3695, "EPHEMERIS_TYPE": 0, "CLASSIFICATION_TYPE": "U", "NORAD_CAT_ID": 66592, "ELEMENT_SET_NO": 999, "REV_AT_EPOCH": 508, "BSTAR": 0.0011478391, "MEAN_MOTION_DOT": 0.00047992, "MEAN_MOTION_DDOT": 0}, "tle": {"line1": "1 66592U 25270E   25352.17419498  .00047992  00000+0  11478-2 0  9997", "line2": "2 66592  42.9987 161.3424 0001499 276.6990  83.3695 15.40728582  5081"}}, "geometry": {"type": "Point", "coordinates": [-157.00512847489819, 33.75281483784519]}}, {"type": "Feature", "properties": {"norad_id": 66593, "name": "STARLINK-36031", "group": "last-30-days", "lat": 25.063101192344785, "lon": -53.1588620764291, "alt_km": 440.8927071212329, "timestamp": "2025-12-18T21:31:49.698662+00:00", "meta": {"OBJECT_NAME": "STARLINK-36031", "OBJECT_ID": "2025-270F", "EPOCH": "2025-12-18T06:00:02.999808", "MEAN_MOTION": 15.40680236, "ECCENTRICITY": 0.00016948, "INCLINATION": 42.9993, "RA_OF_ASC_NODE": 160.694, "ARG_OF_PERICENTER": 274.9443, "MEAN_ANOMALY": 233.3568, "EPHEMERIS_TYPE": 0, "CLASSIFICATION_TYPE": "U", "NORAD_CAT_ID": 66593, "ELEMENT_SET_NO": 999, "REV_AT_EPOCH": 528, "BSTAR": 0.00054859699, "MEAN_MOTION_DOT": 0.00022666, "MEAN_MOTION_DDOT": 0}, "tle": {"line1": "1 66593U 25270F   25352.25003472  .00022666  00000+0  54860-3 0  9992", "line2": "2 66593  42.9993 160.6940 0001694 274.9443 233.3568 15.40680236  5286"}}, "geometry": {"type": "Point", "coordinates": [-53.1588620764291, 25.063101192344785]}}, {"type": "Feature", "properties": {"norad_id": 66594, "name": "STARLINK-36032", "group": "last-30-days", "lat": -38.54726404000255, "lon": 35.47816503829065, "alt_km": 419.8312841198749, "timestamp": "2025-12-18T21:31:49.698680+00:00", "meta": {"OBJECT_NAME": "STARLINK-36032", "OBJECT_ID": "2025-270G", "EPOCH": "2025-12-17T19:43:17.846976", "MEAN_MOTION": 15.49804242, "ECCENTRICITY": 0.00036321, "INCLINATION": 42.9993, "RA_OF_ASC_NODE": 162.9918, "ARG_OF_PERICENTER": 272.3929, "MEAN_ANOMALY": 87.6515, "EPHEMERIS_TYPE": 0, "CLASSIFICATION_TYPE": "U", "NORAD_CAT_ID": 66594, "ELEMENT_SET_NO": 999, "REV_AT_EPOCH": 494, "BSTAR": -0.0040847183, "MEAN_MOTION_DOT": -0.00226912, "MEAN_MOTION_DDOT": 0}, "tle": {"line1": "1 66594U 25270G   25351.82173434 -.00226912  00000+0 -40847-2 0  9992", "line2": "2 66594  42.9993 162.9918 0003632 272.3929  87.6515 15.49804242  4940"}}, "geometry": {"type": "Point", "coordinates": [35.47816503829065, -38.54726404000255]}}, {"type": "Feature", "properties": {"norad_id": 66595, "name": "STARLINK-35711", "group": "last-30-days", "lat": -40.68953257614933, "lon": 44.022211029597784, "alt_km": 417.0798093240519, "timestamp": "2025-12-18T21:31:49.698691+00:00", "meta": {"OBJECT_NAME": "STARLINK-35711", "OBJECT_ID": "2025-270H", "EPOCH": "2025-12-17T21:15:20.899584", "MEAN_MOTION": 15.50590901, "ECCENTRICITY": 0.00015736, "INCLINATION": 42.9988, "RA_OF_ASC_NODE": 162.6103, "ARG_OF_PERICENTER": 270.6428, "MEAN_ANOMALY": 89.4252, "EPHEMERIS_TYPE": 0, "CLASSIFICATION_TYPE": "U", "NORAD_CAT_ID": 66595, "ELEMENT_SET_NO": 999, "REV_AT_EPOCH": 525, "BSTAR": 0.0006504249, "MEAN_MOTION_DOT": 0.00038017, "MEAN_MOTION_DDOT": 0}, "tle": {"line1": "1 66595U 25270H   25351.88565856  .00038017  00000+0  65042-3 0  9992", "line2": "2 66595  42.9988 162.6103 0001573 270.6428  89.4252 15.50590901  5254"}}, "geometry": {"type": "Point", "coordinates": [44.022211029597784, -40.68953257614933]}}, {"type": "Feature", "properties": {"norad_id": 66596, "name": "STARLINK-35811", "group": "last-30-days", "lat": 19.73891842141422, "lon": 179.88282208130929, "alt_km": 441.12435993548024, "timestamp": "2025-12-18T21:31:49.698706+00:00", "meta": {"OBJECT_NAME": "STARLINK-35811", "OBJECT_ID": "2025-270J", "EPOCH": "2025-12-18T04:17:17.175264", "MEAN_MOTION": 15.40733936, "ECCENTRICITY": 0.00019133, "INCLINATION": 42.9988, "RA_OF_ASC_NODE": 161.3759, "ARG_OF_PERICENTER": 275.0046, "MEAN_ANOMALY": 85.0592, "EPHEMERIS_TYPE": 0, "CLASSIFICATION_TYPE": "U", "NORAD_CAT_ID": 66596, "ELEMENT_SET_NO": 999, "REV_AT_EPOCH": 529, "BSTAR": 0.00081215182, "MEAN_MOTION_DOT": 0.00033811, "MEAN_MOTION_DDOT": 0}, "tle": {"line1": "1 66596U 25270J   25352.17867101  .00033811  00000+0  81215-3 0  9991", "line2": "2 66596  42.9988 161.3759 0001913 275.0046  85.0592 15.40733936  5290"}}, "geometry": {"type": "Point", "coordinates": [179.88282208130929, 19.73891842141422]}}, {"type": "Feature", "properties": {"norad_id": 66597, "name": "STARLINK-35820", "group": "last-30-days", "lat": 42.092323749361185, "lon": -127.08718678970908, "alt_km": 437.9940009999764, "timestamp": "2025-12-18T21:31:49.698717+00:00", "meta": {"OBJECT_NAME": "STARLINK-35820", "OBJECT_ID": "2025-270K", "EPOCH": "2025-12-18T04:04:23.198016", "MEAN_MOTION": 15.40730414, "ECCENTRICITY": 0.00015523, "INCLINATION": 42.9983, "RA_OF_ASC_NODE": 161.3064, "ARG_OF_PERICENTER": 282.3921, "MEAN_ANOMALY": 77.6762, "EPHEMERIS_TYPE": 0, "CLASSIFICATION_TYPE": "U", "NORAD_CAT_ID": 66597, "ELEMENT_SET_NO": 999, "REV_AT_EPOCH": 529, "BSTAR": 0.0011425362, "MEAN_MOTION_DOT": 0.00047771, "MEAN_MOTION_DDOT": 0}, "tle": {"line1": "1 66597U 25270K   25352.16971294  .00047771  00000+0  11425-2 0  9995", "line2": "2 66597  42.9983 161.3064 0001552 282.3921  77.6762 15.40730414  5291"}}, "geometry": {"type": "Point", "coordinates": [-127.08718678970908, 42.092323749361185]}}, {"type": "Feature", "properties": {"norad_id": 66598, "name": "STARLINK-35981", "group": "last-30-days", "lat": 9.177920544076729, "lon": -33.08212303654081, "alt_km": 442.9636493632943, "timestamp": "2025-12-18T21:31:49.698728+00:00", "meta": {"OBJECT_NAME": "STARLINK-35981", "OBJECT_ID": "2025-270L", "EPOCH": "2025-12-18T06:00:02.999808", "MEAN_MOTION": 15.4068053, "ECCENTRICITY": 0.00020546, "INCLINATION": 42.9995, "RA_OF_ASC_NODE": 160.6324, "ARG_OF_PERICENTER": 270.3846, "MEAN_ANOMALY": 262.7998, "EPHEMERIS_TYPE": 0, "CLASSIFICATION_TYPE": "U", "NORAD_CAT_ID": 66598, "ELEMENT_SET_NO": 999, "REV_AT_EPOCH": 512, "BSTAR": 0.00045680479, "MEAN_MOTION_DOT": 0.00018813, "MEAN_MOTION_DDOT": 0}, "tle": {"line1": "1 66598U 25270L   25352.25003472  .00018813  00000+0  45680-3 0  9996", "line2": "2 66598  42.9995 160.6324 0002054 270.3846 262.7998 15.40680530  5120"}}, "geometry": {"type": "Point", "coordinates": [-33.08212303654081, 9.177920544076729]}}, {"type": "Feature", "properties": {"norad_id": 66599, "name": "STARLINK-35930", "group": "last-30-days", "lat": -42.26788751957161, "lon": 53.94572862193903, "alt_km": 417.39507718665664, "timestamp": "2025-12-18T21:31:49.698738+00:00", "meta": {"OBJECT_NAME": "STARLINK-35930", "OBJECT_ID": "2025-270M", "EPOCH": "2025-12-17T22:46:08.890464", "MEAN_MOTION": 15.50592863, "ECCENTRICITY": 0.00010449, "INCLINATION": 42.9987, "RA_OF_ASC_NODE": 162.2237, "ARG_OF_PERICENTER": 268.0796, "MEAN_ANOMALY": 91.9944, "EPHEMERIS_TYPE": 0, "CLASSIFICATION_TYPE": "U", "NORAD_CAT_ID": 66599, "ELEMENT_SET_NO": 999, "REV_AT_EPOCH": 515, "BSTAR": 0.00078479215, "MEAN_MOTION_DOT": 0.00045992, "MEAN_MOTION_DDOT": 0}, "tle": {"line1": "1 66599U 25270M   25351.94871401  .00045992  00000+0  78479-3 0  9997", "line2": "2 66599  42.9987 162.2237 0001044 268.0796  91.9944 15.50592863  5157"}}, "geometry": {"type": "Point", "coordinates": [53.94572862193903, -42.26788751957161]}}]}